IRIDIUM 64 [+]          
1 25287U 98021C   17057.50363648 -.00000036  00000-0 -19875-4 0  9994
2 25287  86.3928 270.2090 0001825  87.3230 272.8175 14.34217166989138
IRIDIUM 65 [+]          
1 25288U 98021D   17057.57974969 -.00000033  00000-0 -18895-4 0  9994
2 25288  86.3925 270.0824 0001950  79.2074 280.9341 14.34217139989162
IRIDIUM 66 [+]          
1 25289U 98021E   17057.58609150 -.00000032  00000-0 -18617-4 0  9994
2 25289  86.3925 269.9840 0002020  81.7930 278.3494 14.34217203989157
IRIDIUM 67 [+]          
1 25290U 98021F   17057.59243420  .00000030  00000-0  35666-5 0  9991
2 25290  86.3923 270.1163 0002075  87.4964 272.6470 14.34217537989172
IRIDIUM 68 [+]          
1 25291U 98021G   17057.52899709 -.00000037  00000-0 -20322-4 0  9993
2 25291  86.3928 270.2595 0001908  83.5651 276.5762 14.34218415989131
IRIDIUM 69 [-]          
1 25319U 98026A   17057.59171501  .00000139  00000-0  38749-4 0  9992
2 25319  86.3979 292.2512 0000418  29.7723 330.3499 14.38652988987133
IRIDIUM 71 [-]          
1 25320U 98026B   17057.61381263  .00000124  00000-0  33817-4 0  9990
2 25320  86.3955 288.1832 0002692  39.2970 320.8424 14.39064908987563
IRIDIUM 70 [+]          
1 25342U 98032A   17057.56005934  .00000031  00000-0  40111-5 0  9996
2 25342  86.3929 270.4834 0002124  84.9482 304.5056 14.34217569983248
IRIDIUM 72 [+]          
1 25343U 98032B   17057.54168901 -.00000034  00000-0 -19212-4 0  9991
2 25343  86.3926 270.1098 0001972  82.5422 277.5998 14.34217566983244
IRIDIUM 73 [-]          
1 25344U 98032C   17057.58426706  .00000152  00000-0  34702-4 0  9996
2 25344  86.4393 249.6551 0002869  86.4998 273.6534 14.49012578991532
IRIDIUM 74 [S]          
1 25345U 98032D   17057.58368112 -.00000047  00000-0 -20293-4 0  9998
2 25345  86.4442 270.4903 0008125  48.4297  13.7732 14.42446469986790
IRIDIUM 75 [+]          
1 25346U 98032E   17057.55367098  .00000031  00000-0  40265-5 0  9991
2 25346  86.3927 270.3536 0002060  87.2085 302.0497 14.34217816983812
IRIDIUM 3 [+]           
1 25431U 98048A   17057.61405675  .00000154  00000-0  47947-4 0  9993
2 25431  86.3960 301.9430 0002112  80.4268 340.8304 14.34219908969763
IRIDIUM 76 [+]          
1 25432U 98048B   17057.23084899  .00000167  00000-0  52696-4 0  9994
2 25432  86.3958 301.8609 0002208  85.3070  60.4754 14.34220386969697
IRIDIUM 82 [+]          
1 25467U 98051A   17057.52081761 -.00000017  00000-0 -12960-4 0  9999
2 25467  86.3900  68.4150 0001769  86.7977 273.3421 14.34215838970752
IRIDIUM 81 [+]          
1 25468U 98051B   17057.51443946 -.00000001  00000-0 -74648-5 0  9991
2 25468  86.3921  68.0507 0002163  90.8089 269.3354 14.34213320966970
IRIDIUM 80 [+]          
1 25469U 98051C   17057.58780203 -.00000031  00000-0 -18234-4 0  9990
2 25469  86.3926  68.3029 0002160  91.4177  25.6401 14.34215750966986
IRIDIUM 77 [+]          
1 25471U 98051E   17057.59283443 -.00000023  00000-0 -15421-4 0  9994
2 25471  86.3917  67.8785 0002230  85.9829  24.3411 14.34215652972189
IRIDIUM 2 [-]           
1 25527U 98066A   17057.58796456  .00001790  00000-0  90658-4 0  9999
2 25527  85.5278  97.5347 0011190 128.2535 231.9714 15.16201406  1117
IRIDIUM 86 [+]          
1 25528U 98066B   17057.53011234 -.00000011  00000-0 -11006-4 0  9996
2 25528  86.3947  36.0564 0002176  79.1460 280.9981 14.34214073963507
IRIDIUM 84 [+]          
1 25530U 98066D   17057.49206904 -.00000008  00000-0 -10038-4 0  9994
2 25530  86.3949  36.2355 0002188  84.2251 275.9194 14.34214064961137
IRIDIUM 83 [+]          
1 25531U 98066E   17057.52376568 -.00000013  00000-0 -11812-4 0  9990
2 25531  86.3952  36.3429 0002133  85.7766 274.3673 14.34214537958497
IRIDIUM 20 [+]          
1 25577U 98074A   17057.58317484  .00000175  00000-0  55410-4 0  9996
2 25577  86.3956 301.6363 0002046  84.1936 275.9493 14.34220430952581
IRIDIUM 11 [+]          
1 25578U 98074B   17057.60763507  .00000165  00000-0  51811-4 0  9991
2 25578  86.3956 301.8288 0001945  83.2646 337.5910 14.34220154961554
IRIDIUM 14 [+]          
1 25777U 99032A   17057.56706373 -.00000031  00000-0 -18097-4 0  9993
2 25777  86.3928 270.1798 0002013  79.2868 280.8554 14.34217304938827
IRIDIUM 21 [+]          
1 25778U 99032B   17057.53534834 -.00000029  00000-0 -17346-4 0  9995
2 25778  86.3928 270.2133 0002070  87.0722 273.0711 14.34217494932251
IRIDIUM 91 [+]          
1 27372U 02005A   17057.32167307  .00000207  00000-0  66912-4 0  9994
2 27372  86.3396 333.6845 0002140  73.8488  64.4527 14.34218131795732
IRIDIUM 90 [S]          
1 27373U 02005B   17057.51376779  .00000010  00000-0 -31664-5 0  9991
2 27373  86.4463  36.3275 0002293  81.1386 279.0074 14.42945386795392
IRIDIUM 94 [+]          
1 27374U 02005C   17057.61850630  .00000127  00000-0  38270-4 0  9993
2 27374  86.3960 301.9514 0002822  78.2993 300.5689 14.34217409800107
IRIDIUM 95 [+]          
1 27375U 02005D   17057.19341399  .00000186  00000-0  59457-4 0  9999
2 27375  86.3769 333.8372 0002241  82.7369 277.4081 14.34218899795007
IRIDIUM 96 [+]          
1 27376U 02005E   17057.45053384  .00000176  00000-0  55722-4 0  9993
2 27376  86.4027   5.4676 0003124 104.6495 255.5048 14.34218393800242
IRIDIUM 97 [+]          
1 27450U 02031A   17057.55839175  .00000148  00000-0  45901-4 0  9993
2 27450  86.3995   5.1392 0002029  88.5677 271.5751 14.34217162774371
IRIDIUM 98 [+]          
1 27451U 02031B   17057.56800701 -.00000031  00000-0 -18148-4 0  9994
2 27451  86.3918  68.4628 0002083  90.0569  23.0234 14.34216091775444
